CCSDS_OMM_VERS = 2.0
CREATION_DATE  = 
ORIGINATOR     = 

OBJECT_NAME    = STARLINK-36320
OBJECT_ID      = 2026-042X
CENTER_NAME    = EARTH
REF_FRAME      = TEME
TIME_SYSTEM    = UTC
MEAN_ELEMENT_THEORY = SGP/SGP4

EPOCH          = 2026-03-20T02:00:03.000384
MEAN_MOTION    = 15.77626080
ECCENTRICITY   = .0001455
INCLINATION    = 53.1591
RA_OF_ASC_NODE = 142.5027
ARG_OF_PERICENTER = 82.5943
MEAN_ANOMALY   = 116.1788

EPHEMERIS_TYPE = 0
CLASSIFICATION_TYPE = U
NORAD_CAT_ID   = 68090
ELEMENT_SET_NO = 999
REV_AT_EPOCH   = 371
BSTAR          = -.11864E-1
MEAN_MOTION_DOT = -.1778293E-1
MEAN_MOTION_DDOT = 0

CCSDS_OMM_VERS = 2.0
CREATION_DATE  = 
ORIGINATOR     = 

OBJECT_NAME    = STARLINK-36324
OBJECT_ID      = 2026-042Y
CENTER_NAME    = EARTH
REF_FRAME      = TEME
TIME_SYSTEM    = UTC
MEAN_ELEMENT_THEORY = SGP/SGP4

EPOCH          = 2026-03-20T02:00:03.000384
MEAN_MOTION    = 15.75200016
ECCENTRICITY   = .0000965
INCLINATION    = 53.1592
RA_OF_ASC_NODE = 142.5538
ARG_OF_PERICENTER = 75.1734
MEAN_ANOMALY   = 98.5502

EPHEMERIS_TYPE = 0
CLASSIFICATION_TYPE = U
NORAD_CAT_ID   = 68091
ELEMENT_SET_NO = 999
REV_AT_EPOCH   = 371
BSTAR          = .39813E-3
MEAN_MOTION_DOT = .60723E-3
MEAN_MOTION_DDOT = 0

CCSDS_OMM_VERS = 2.0
CREATION_DATE  = 
ORIGINATOR     = 

OBJECT_NAME    = STARLINK-36896
OBJECT_ID      = 2026-042Z
CENTER_NAME    = EARTH
REF_FRAME      = TEME
TIME_SYSTEM    = UTC
MEAN_ELEMENT_THEORY = SGP/SGP4

EPOCH          = 2026-03-20T02:00:03.000384
MEAN_MOTION    = 15.81073295
ECCENTRICITY   = .0001202
INCLINATION    = 53.1586
RA_OF_ASC_NODE = 142.4854
ARG_OF_PERICENTER = 91.3446
MEAN_ANOMALY   = 116.0136

EPHEMERIS_TYPE = 0
CLASSIFICATION_TYPE = U
NORAD_CAT_ID   = 68092
ELEMENT_SET_NO = 999
REV_AT_EPOCH   = 372
BSTAR          = -.3275E-2
MEAN_MOTION_DOT = -.609155E-2
MEAN_MOTION_DDOT = 0

CCSDS_OMM_VERS = 2.0
CREATION_DATE  = 
ORIGINATOR     = 

OBJECT_NAME    = STARLINK-36251
OBJECT_ID      = 2026-042AA
CENTER_NAME    = EARTH
REF_FRAME      = TEME
TIME_SYSTEM    = UTC
MEAN_ELEMENT_THEORY = SGP/SGP4

EPOCH          = 2026-03-20T02:00:03.000384
MEAN_MOTION    = 15.80840366
ECCENTRICITY   = .0001285
INCLINATION    = 53.1587
RA_OF_ASC_NODE = 142.4676
ARG_OF_PERICENTER = 103.3419
MEAN_ANOMALY   = 112.5992

EPHEMERIS_TYPE = 0
CLASSIFICATION_TYPE = U
NORAD_CAT_ID   = 68093
ELEMENT_SET_NO = 999
REV_AT_EPOCH   = 371
BSTAR          = .33356E-3
MEAN_MOTION_DOT = .65536E-3
MEAN_MOTION_DDOT = 0

CCSDS_OMM_VERS = 2.0
CREATION_DATE  = 
ORIGINATOR     = 

OBJECT_NAME    = STARLINK-36787
OBJECT_ID      = 2026-042AB
CENTER_NAME    = EARTH
REF_FRAME      = TEME
TIME_SYSTEM    = UTC
MEAN_ELEMENT_THEORY = SGP/SGP4

EPOCH          = 2026-03-20T02:00:03.000384
MEAN_MOTION    = 15.75188555
ECCENTRICITY   = .0000811
INCLINATION    = 53.1592
RA_OF_ASC_NODE = 142.4998
ARG_OF_PERICENTER = 85.3654
MEAN_ANOMALY   = 114.1069

EPHEMERIS_TYPE = 0
CLASSIFICATION_TYPE = U
NORAD_CAT_ID   = 68094
ELEMENT_SET_NO = 999
REV_AT_EPOCH   = 371
BSTAR          = .60852E-3
MEAN_MOTION_DOT = .93467E-3
MEAN_MOTION_DDOT = 0

CCSDS_OMM_VERS = 2.0
CREATION_DATE  = 
ORIGINATOR     = 

OBJECT_NAME    = STARLINK-36790
OBJECT_ID      = 2026-042AC
CENTER_NAME    = EARTH
REF_FRAME      = TEME
TIME_SYSTEM    = UTC
MEAN_ELEMENT_THEORY = SGP/SGP4

EPOCH          = 2026-03-20T02:00:03.000384
MEAN_MOTION    = 15.80843442
ECCENTRICITY   = .0001142
INCLINATION    = 53.1586
RA_OF_ASC_NODE = 142.4764
ARG_OF_PERICENTER = 93.8422
MEAN_ANOMALY   = 117.8299

EPHEMERIS_TYPE = 0
CLASSIFICATION_TYPE = U
NORAD_CAT_ID   = 68095
ELEMENT_SET_NO = 999
REV_AT_EPOCH   = 371
BSTAR          = .25118E-3
MEAN_MOTION_DOT = .49091E-3
MEAN_MOTION_DDOT = 0

CCSDS_OMM_VERS = 2.0
CREATION_DATE  = 
ORIGINATOR     = 

OBJECT_NAME    = STARLINK-36328
OBJECT_ID      = 2026-042AD
CENTER_NAME    = EARTH
REF_FRAME      = TEME
TIME_SYSTEM    = UTC
MEAN_ELEMENT_THEORY = SGP/SGP4

EPOCH          = 2026-03-20T02:00:03.000384
MEAN_MOTION    = 15.80847683
ECCENTRICITY   = .0001383
INCLINATION    = 53.1586
RA_OF_ASC_NODE = 142.4407
ARG_OF_PERICENTER = 89.8767
MEAN_ANOMALY   = 138.8825

EPHEMERIS_TYPE = 0
CLASSIFICATION_TYPE = U
NORAD_CAT_ID   = 68096
ELEMENT_SET_NO = 999
REV_AT_EPOCH   = 371
BSTAR          = .1573E-3
MEAN_MOTION_DOT = .3042E-3
MEAN_MOTION_DDOT = 0

CCSDS_OMM_VERS = 2.0
CREATION_DATE  = 
ORIGINATOR     = 

OBJECT_NAME    = STARLINK-36853
OBJECT_ID      = 2026-042AE
CENTER_NAME    = EARTH
REF_FRAME      = TEME
TIME_SYSTEM    = UTC
MEAN_ELEMENT_THEORY = SGP/SGP4

EPOCH          = 2026-03-20T02:00:03.000384
MEAN_MOTION    = 15.80877713
ECCENTRICITY   = .0001345
INCLINATION    = 53.1587
RA_OF_ASC_NODE = 142.4586
ARG_OF_PERICENTER = 113.0720
MEAN_ANOMALY   = 107.1334

EPHEMERIS_TYPE = 0
CLASSIFICATION_TYPE = U
NORAD_CAT_ID   = 68097
ELEMENT_SET_NO = 999
REV_AT_EPOCH   = 372
BSTAR          = -.19974E-3
MEAN_MOTION_DOT = -.39948E-3
MEAN_MOTION_DDOT = 0

CCSDS_OMM_VERS = 2.0
CREATION_DATE  = 
ORIGINATOR     = 

OBJECT_NAME    = GLOBAL-34
OBJECT_ID      = 2026-043A
CENTER_NAME    = EARTH
REF_FRAME      = TEME
TIME_SYSTEM    = UTC
MEAN_ELEMENT_THEORY = SGP/SGP4

EPOCH          = 2026-03-20T04:04:04.400832
MEAN_MOTION    = 15.31624721
ECCENTRICITY   = .0005446
INCLINATION    = 42.0222
RA_OF_ASC_NODE = 15.0034
ARG_OF_PERICENTER = 353.5241
MEAN_ANOMALY   = 6.5525

EPHEMERIS_TYPE = 0
CLASSIFICATION_TYPE = U
NORAD_CAT_ID   = 68098
ELEMENT_SET_NO = 999
REV_AT_EPOCH   = 217
BSTAR          = .27782E-3
MEAN_MOTION_DOT = .8427E-4
MEAN_MOTION_DDOT = 0

CCSDS_OMM_VERS = 2.0
CREATION_DATE  = 
ORIGINATOR     = 

OBJECT_NAME    = STARLINK-37022
OBJECT_ID      = 2026-044A
CENTER_NAME    = EARTH
REF_FRAME      = TEME
TIME_SYSTEM    = UTC
MEAN_ELEMENT_THEORY = SGP/SGP4

EPOCH          = 2026-03-20T02:00:03.000384
MEAN_MOTION    = 15.81076612
ECCENTRICITY   = .0001808
INCLINATION    = 97.2842
RA_OF_ASC_NODE = 39.7214
ARG_OF_PERICENTER = 97.5615
MEAN_ANOMALY   = 322.1411

EPHEMERIS_TYPE = 0
CLASSIFICATION_TYPE = U
NORAD_CAT_ID   = 68101
ELEMENT_SET_NO = 999
REV_AT_EPOCH   = 307
BSTAR          = -.40608E-2
MEAN_MOTION_DOT = -.725338E-2
MEAN_MOTION_DDOT = 0

CCSDS_OMM_VERS = 2.0
CREATION_DATE  = 
ORIGINATOR     = 

OBJECT_NAME    = STARLINK-37046
OBJECT_ID      = 2026-044B
CENTER_NAME    = EARTH
REF_FRAME      = TEME
TIME_SYSTEM    = UTC
MEAN_ELEMENT_THEORY = SGP/SGP4

EPOCH          = 2026-03-20T02:00:03.000384
MEAN_MOTION    = 15.80911955
ECCENTRICITY   = .000099
INCLINATION    = 97.2842
RA_OF_ASC_NODE = 39.7236
ARG_OF_PERICENTER = 99.4156
MEAN_ANOMALY   = 324.6051

EPHEMERIS_TYPE = 0
CLASSIFICATION_TYPE = U
NORAD_CAT_ID   = 68102
ELEMENT_SET_NO = 999
REV_AT_EPOCH   = 307
BSTAR          = -.14496E-2
MEAN_MOTION_DOT = -.270566E-2
MEAN_MOTION_DDOT = 0

CCSDS_OMM_VERS = 2.0
CREATION_DATE  = 
ORIGINATOR     = 

OBJECT_NAME    = STARLINK-37018
OBJECT_ID      = 2026-044C
CENTER_NAME    = EARTH
REF_FRAME      = TEME
TIME_SYSTEM    = UTC
MEAN_ELEMENT_THEORY = SGP/SGP4

EPOCH          = 2026-03-20T02:00:03.000384
MEAN_MOTION    = 15.80811231
ECCENTRICITY   = .0001238
INCLINATION    = 97.2840
RA_OF_ASC_NODE = 39.7256
ARG_OF_PERICENTER = 107.1961
MEAN_ANOMALY   = 321.1174

EPHEMERIS_TYPE = 0
CLASSIFICATION_TYPE = U
NORAD_CAT_ID   = 68103
ELEMENT_SET_NO = 999
REV_AT_EPOCH   = 302
BSTAR          = -.58324E-4
MEAN_MOTION_DOT = -.11297E-3
MEAN_MOTION_DDOT = 0

