STARLINK-36320          
1 68090U 26042X   26079.08336806 -.01778293  00000+0 -11864-1 0  9994
2 68090  53.1591 142.5027 0001455  82.5943 116.1788 15.77626080  3711
STARLINK-36324          
1 68091U 26042Y   26079.08336806  .00060723  00000+0  39813-3 0  9990
2 68091  53.1592 142.5538 0000965  75.1734  98.5502 15.75200016  3713
STARLINK-36896          
1 68092U 26042Z   26079.08336806 -.00609155  00000+0 -32750-2 0  9993
2 68092  53.1586 142.4854 0001202  91.3446 116.0136 15.81073295  3726
STARLINK-36251          
1 68093U 26042AA  26079.08336806  .00065536  00000+0  33356-3 0  9995
2 68093  53.1587 142.4676 0001285 103.3419 112.5992 15.80840366  3715
STARLINK-36787          
1 68094U 26042AB  26079.08336806  .00093467  00000+0  60852-3 0  9991
2 68094  53.1592 142.4998 0000811  85.3654 114.1069 15.75188555  3715
STARLINK-36790          
1 68095U 26042AC  26079.08336806  .00049091  00000+0  25118-3 0  9992
2 68095  53.1586 142.4764 0001142  93.8422 117.8299 15.80843442  3719
STARLINK-36328          
1 68096U 26042AD  26079.08336806  .00030420  00000+0  15730-3 0  9998
2 68096  53.1586 142.4407 0001383  89.8767 138.8825 15.80847683  3717
STARLINK-36853          
1 68097U 26042AE  26079.08336806 -.00039948  00000+0 -19974-3 0  9999
2 68097  53.1587 142.4586 0001345 113.0720 107.1334 15.80877713  3726
GLOBAL-34               
1 68098U 26043A   26079.16949538  .00008427  00000+0  27782-3 0  9994
2 68098  42.0222  15.0034 0005446 353.5241   6.5525 15.31624721  2175
STARLINK-37022          
1 68101U 26044A   26079.08336806 -.00725338  00000+0 -40608-2 0  9999
2 68101  97.2842  39.7214 0001808  97.5615 322.1411 15.81076612  3077
STARLINK-37046          
1 68102U 26044B   26079.08336806 -.00270566  00000+0 -14496-2 0  9994
2 68102  97.2842  39.7236 0000990  99.4156 324.6051 15.80911955  3078
STARLINK-37018          
1 68103U 26044C   26079.08336806 -.00011297  00000+0 -58324-4 0  9999
2 68103  97.2840  39.7256 0001238 107.1961 321.1174 15.80811231  3025
